IRIDIUM 159             
1 43578U 18061K   25165.52613958  .00000208  00000+0  67154-4 0  9997
2 43578  86.3990 210.3111 0002141  96.6543 263.4896 14.34218030360681
IRIDIUM 180             
1 43922U 19002A   25165.45586714  .00000036  00000+0  57010-5 0  9997
2 43922  86.3979 147.3216 0002339  89.6425 270.5039 14.34217922336282
IRIDIUM 176             
1 43923U 19002B   25165.45369759  .00000750  00000+0  11499-3 0  9998
2 43923  86.6104 147.3164 0003184  91.1763 268.9819 14.72254135345141
IRIDIUM 168             
1 43924U 19002C   25165.44952430  .00000075  00000+0  19681-4 0  9994
2 43924  86.3981 147.3912 0002352  88.5042 271.6423 14.34217818336269
IRIDIUM 173             
1 43925U 19002D   25165.50660859  .00000013  00000+0 -24274-5 0  9991
2 43925  86.3979 147.2715 0002454  89.8158 270.3319 14.34217636336259
IRIDIUM 169             
1 43926U 19002E   25165.51088914  .00000151  00000+0  42994-4 0  9999
2 43926  86.4248 178.8499 0003825  88.0729 272.0907 14.38607084337366
IRIDIUM 172             
1 43927U 19002F   25165.43049567  .00000175  00000+0  55602-4 0  9998
2 43927  86.3980 147.3101 0002242  94.8282 265.3170 14.34217700336253
IRIDIUM 175             
1 43928U 19002G   25165.31271012  .00000905  00000+0  13960-3 0  9999
2 43928  86.1499 100.0545 0003153  68.0003 292.1548 14.72236690345114
